[{"OBJECT_NAME":"STARLINK-36816","OBJECT_ID":"2026-035N","EPOCH":"2026-03-06T06:00:02.000160","MEAN_MOTION":15.96776234,"ECCENTRICITY":0.00010942,"INCLINATION":97.2717,"RA_OF_ASC_NODE":357.3638,"ARG_OF_PERICENTER":109.3171,"MEAN_ANOMALY":286.0535,"EPHEMERIS_TYPE":0,"CLASSIFICATION_TYPE":"U","NORAD_CAT_ID":67891,"ELEMENT_SET_NO":999,"REV_AT_EPOCH":309,"BSTAR":-0.0028180488,"MEAN_MOTION_DOT":-0.01188848,"MEAN_MOTION_DDOT":0.00043584707},{"OBJECT_NAME":"STARLINK-36813","OBJECT_ID":"2026-035P","EPOCH":"2026-03-06T06:00:02.000160","MEAN_MOTION":15.96351036,"ECCENTRICITY":9.752e-5,"INCLINATION":97.2709,"RA_OF_ASC_NODE":357.3523,"ARG_OF_PERICENTER":97.8191,"MEAN_ANOMALY":270.1973,"EPHEMERIS_TYPE":0,"CLASSIFICATION_TYPE":"U","NORAD_CAT_ID":67892,"ELEMENT_SET_NO":999,"REV_AT_EPOCH":320,"BSTAR":-0.0028321753,"MEAN_MOTION_DOT":-0.0116778,"MEAN_MOTION_DDOT":0.00041975746},{"OBJECT_NAME":"STARLINK-36803","OBJECT_ID":"2026-035Q","EPOCH":"2026-03-06T06:00:02.000160","MEAN_MOTION":15.96002856,"ECCENTRICITY":0.00011171,"INCLINATION":97.2726,"RA_OF_ASC_NODE":357.342,"ARG_OF_PERICENTER":113.2518,"MEAN_ANOMALY":226.142,"EPHEMERIS_TYPE":0,"CLASSIFICATION_TYPE":"U","NORAD_CAT_ID":67893,"ELEMENT_SET_NO":999,"REV_AT_EPOCH":320,"BSTAR":-0.0028026822,"MEAN_MOTION_DOT":-0.01134437,"MEAN_MOTION_DDOT":0.00039637047},{"OBJECT_NAME":"STARLINK-36846","OBJECT_ID":"2026-035R","EPOCH":"2026-03-06T06:00:02.000160","MEAN_MOTION":15.96102507,"ECCENTRICITY":0.00012674,"INCLINATION":97.2723,"RA_OF_ASC_NODE":357.3462,"ARG_OF_PERICENTER":122.9997,"MEAN_ANOMALY":226.69,"EPHEMERIS_TYPE":0,"CLASSIFICATION_TYPE":"U","NORAD_CAT_ID":67894,"ELEMENT_SET_NO":999,"REV_AT_EPOCH":320,"BSTAR":-0.0028029479,"MEAN_MOTION_DOT":-0.01140614,"MEAN_MOTION_DDOT":0.0004007963},{"OBJECT_NAME":"STARLINK-36866","OBJECT_ID":"2026-035S","EPOCH":"2026-03-06T06:00:02.000160","MEAN_MOTION":15.96165533,"ECCENTRICITY":0.00010973,"INCLINATION":97.2722,"RA_OF_ASC_NODE":357.348,"ARG_OF_PERICENTER":105.8147,"MEAN_ANOMALY":248.4217,"EPHEMERIS_TYPE":0,"CLASSIFICATION_TYPE":"U","NORAD_CAT_ID":67895,"ELEMENT_SET_NO":999,"REV_AT_EPOCH":320,"BSTAR":-0.0028173222,"MEAN_MOTION_DOT":-0.01150255,"MEAN_MOTION_DDOT":0.00040736716},{"OBJECT_NAME":"STARLINK-36877","OBJECT_ID":"2026-035T","EPOCH":"2026-03-06T06:00:02.000160","MEAN_MOTION":15.96049238,"ECCENTRICITY":9.982e-5,"INCLINATION":97.2723,"RA_OF_ASC_NODE":357.3439,"ARG_OF_PERICENTER":97.443,"MEAN_ANOMALY":247.2959,"EPHEMERIS_TYPE":0,"CLASSIFICATION_TYPE":"U","NORAD_CAT_ID":67896,"ELEMENT_SET_NO":999,"REV_AT_EPOCH":320,"BSTAR":-0.0028133337,"MEAN_MOTION_DOT":-0.01141518,"MEAN_MOTION_DDOT":0.0004011642},{"OBJECT_NAME":"STARLINK-36870","OBJECT_ID":"2026-035U","EPOCH":"2026-03-06T06:00:02.000160","MEAN_MOTION":15.96216399,"ECCENTRICITY":0.00010361,"INCLINATION":97.2718,"RA_OF_ASC_NODE":357.3498,"ARG_OF_PERICENTER":105.3268,"MEAN_ANOMALY":254.0448,"EPHEMERIS_TYPE":0,"CLASSIFICATION_TYPE":"U","NORAD_CAT_ID":67897,"ELEMENT_SET_NO":999,"REV_AT_EPOCH":320,"BSTAR":-0.0028224054,"MEAN_MOTION_DOT":-0.01155441,"MEAN_MOTION_DDOT":0.0004109957},{"OBJECT_NAME":"STARLINK-36810","OBJECT_ID":"2026-035V","EPOCH":"2026-03-06T06:00:02.000160","MEAN_MOTION":15.96285114,"ECCENTRICITY":0.00010013,"INCLINATION":97.2718,"RA_OF_ASC_NODE":357.3514,"ARG_OF_PERICENTER":100.3167,"MEAN_ANOMALY":263.2349,"EPHEMERIS_TYPE":0,"CLASSIFICATION_TYPE":"U","NORAD_CAT_ID":67898,"ELEMENT_SET_NO":999,"REV_AT_EPOCH":320,"BSTAR":-0.0028190102,"MEAN_MOTION_DOT":-0.01158309,"MEAN_MOTION_DDOT":0.00041318839},{"OBJECT_NAME":"STARLINK-36878","OBJECT_ID":"2026-035W","EPOCH":"2026-03-06T06:00:02.000160","MEAN_MOTION":15.96419379,"ECCENTRICITY":0.00011238,"INCLINATION":97.2717,"RA_OF_ASC_NODE":357.3548,"ARG_OF_PERICENTER":115.0893,"MEAN_ANOMALY":256.7898,"EPHEMERIS_TYPE":0,"CLASSIFICATION_TYPE":"U","NORAD_CAT_ID":67899,"ELEMENT_SET_NO":999,"REV_AT_EPOCH":320,"BSTAR":-0.0028120957,"MEAN_MOTION_DOT":-0.01163846,"MEAN_MOTION_DDOT":0.00041744358},{"OBJECT_NAME":"STARLINK-36361","OBJECT_ID":"2026-035X","EPOCH":"2026-03-06T06:00:02.000160","MEAN_MOTION":15.9648981,"ECCENTRICITY":0.00011049,"INCLINATION":97.2715,"RA_OF_ASC_NODE":357.3568,"ARG_OF_PERICENTER":109.893,"MEAN_ANOMALY":266.4909,"EPHEMERIS_TYPE":0,"CLASSIFICATION_TYPE":"U","NORAD_CAT_ID":67900,"ELEMENT_SET_NO":999,"REV_AT_EPOCH":320,"BSTAR":-0.0028216317,"MEAN_MOTION_DOT":-0.01172172,"MEAN_MOTION_DDOT":0.00042330605},{"OBJECT_NAME":"STARLINK-36336","OBJECT_ID":"2026-035Y","EPOCH":"2026-03-06T06:00:02.000160","MEAN_MOTION":15.96707789,"ECCENTRICITY":0.00010085,"INCLINATION":97.2724,"RA_OF_ASC_NODE":357.363,"ARG_OF_PERICENTER":108.3066,"MEAN_ANOMALY":281.7858,"EPHEMERIS_TYPE":0,"CLASSIFICATION_TYPE":"U","NORAD_CAT_ID":67901,"ELEMENT_SET_NO":999,"REV_AT_EPOCH":325,"BSTAR":-0.0028001653,"MEAN_MOTION_DOT":-0.01177021,"MEAN_MOTION_DDOT":0.00042754551},{"OBJECT_NAME":"STARLINK-36876","OBJECT_ID":"2026-035Z","EPOCH":"2026-03-06T06:00:02.000160","MEAN_MOTION":15.96559985,"ECCENTRICITY":0.00010877,"INCLINATION":97.2722,"RA_OF_ASC_NODE":357.3595,"ARG_OF_PERICENTER":113.4549,"MEAN_ANOMALY":266.9451,"EPHEMERIS_TYPE":0,"CLASSIFICATION_TYPE":"U","NORAD_CAT_ID":67902,"ELEMENT_SET_NO":999,"REV_AT_EPOCH":320,"BSTAR":-0.0027972418,"MEAN_MOTION_DOT":-0.01166513,"MEAN_MOTION_DDOT":0.00041984481},{"OBJECT_NAME":"STARLINK-36257","OBJECT_ID":"2026-035AA","EPOCH":"2026-03-06T06:00:02.000160","MEAN_MOTION":15.96634025,"ECCENTRICITY":0.00010013,"INCLINATION":97.2721,"RA_OF_ASC_NODE":357.3602,"ARG_OF_PERICENTER":108.4497,"MEAN_ANOMALY":276.1449,"EPHEMERIS_TYPE":0,"CLASSIFICATION_TYPE":"U","NORAD_CAT_ID":67903,"ELEMENT_SET_NO":999,"REV_AT_EPOCH":325,"BSTAR":-0.0027889153,"MEAN_MOTION_DOT":-0.01167695,"MEAN_MOTION_DDOT":0.00042096583},{"OBJECT_NAME":"STARLINK-36814","OBJECT_ID":"2026-036A","EPOCH":"2026-03-06T06:00:02.000160","MEAN_MOTION":15.81996579,"ECCENTRICITY":0.00026216,"INCLINATION":42.9993,"RA_OF_ASC_NODE":270.8897,"ARG_OF_PERICENTER":258.5452,"MEAN_ANOMALY":161.3592,"EPHEMERIS_TYPE":0,"CLASSIFICATION_TYPE":"U","NORAD_CAT_ID":67904,"ELEMENT_SET_NO":999,"REV_AT_EPOCH":309,"BSTAR":0.00010134016,"MEAN_MOTION_DOT":0.00020839,"MEAN_MOTION_DDOT":0},{"OBJECT_NAME":"STARLINK-36729","OBJECT_ID":"2026-036B","EPOCH":"2026-03-06T06:00:02.000160","MEAN_MOTION":15.82156578,"ECCENTRICITY":0.00022124,"INCLINATION":42.9997,"RA_OF_ASC_NODE":270.8781,"ARG_OF_PERICENTER":291.7484,"MEAN_ANOMALY":132.3999,"EPHEMERIS_TYPE":0,"CLASSIFICATION_TYPE":"U","NORAD_CAT_ID":67905,"ELEMENT_SET_NO":999,"REV_AT_EPOCH":309,"BSTAR":-0.0010423483,"MEAN_MOTION_DOT":-0.00216085,"MEAN_MOTION_DDOT":0},{"OBJECT_NAME":"STARLINK-36763","OBJECT_ID":"2026-036C","EPOCH":"2026-03-06T06:00:02.000160","MEAN_MOTION":15.82007387,"ECCENTRICITY":0.00021353,"INCLINATION":42.9996,"RA_OF_ASC_NODE":270.867,"ARG_OF_PERICENTER":242.9078,"MEAN_ANOMALY":185.5355,"EPHEMERIS_TYPE":0,"CLASSIFICATION_TYPE":"U","NORAD_CAT_ID":67906,"ELEMENT_SET_NO":999,"REV_AT_EPOCH":309,"BSTAR":3.2106035e-5,"MEAN_MOTION_DOT":6.229e-5,"MEAN_MOTION_DDOT":0}]
